OBJECT_NAME,OBJECT_ID,EPOCH,MEAN_MOTION,ECCENTRICITY,INCLINATION,RA_OF_ASC_NODE,ARG_OF_PERICENTER,MEAN_ANOMALY,EPHEMERIS_TYPE,CLASSIFICATION_TYPE,NORAD_CAT_ID,ELEMENT_SET_NO,REV_AT_EPOCH,BSTAR,MEAN_MOTION_DOT,MEAN_MOTION_DDOT
BEIDOU-3 M13 (C32),2018-072A,2021-01-03T11:48:35.519328,1.86231592,.0004436,55.2153,129.1827,278.3078,64.6570,0,U,43622,999,1557,0,.43E-6,0
BEIDOU-3 M14 (C33),2018-072B,2021-01-03T11:12:13.152960,1.86231595,.0002982,55.2173,129.1751,318.7147,97.5493,0,U,43623,999,1558,0,.43E-6,0
BEIDOU-3 M15 (C34),2018-078A,2021-01-03T03:39:11.329344,1.86232977,.0006848,55.2138,8.7762,336.0764,124.4207,0,U,43647,999,1508,.1E-3,-.59E-6,0
BEIDOU-3 M16 (C35),2018-078B,2021-01-03T10:51:54.847296,1.86232304,.0004442,55.2110,8.7734,338.8848,231.8209,0,U,43648,999,1510,.1E-3,-.59E-6,0
BEIDOU-3 G1 (C59),2018-085A,2021-01-03T12:01:13.084896,1.00271498,.0004385,1.3499,243.7645,10.6264,169.3333,0,U,43683,999,810,0,-.266E-5,0
BEIDOU-3 M17 (C36),2018-093A,2021-01-03T00:43:30.406656,1.86231903,.0009107,54.5522,250.1257,278.6897,264.9919,0,U,43706,999,1444,0,.44E-6,0
BEIDOU-3 M18 (C37),2018-093B,2021-01-02T11:46:55.379136,1.86232136,.0008565,54.5523,250.1331,304.3015,328.5059,0,U,43707,999,1443,0,.47E-6,0
BEIDOU-3 IGSO-1 (C38),2019-023A,2021-01-02T13:25:42.597984,1.00289431,.0017991,55.7801,58.7301,200.2859,158.1207,0,U,44204,999,638,0,-.206E-5,0
BEIDOU-2 G8,2019-027A,2021-01-03T05:06:23.142240,1.00266850,.0007594,0.5432,308.3484,277.3363,98.4473,0,U,44231,999,611,0,-.236E-5,0
BEIDOU-3 IGSO-2 (C39),2019-035A,2021-01-03T10:19:22.036224,1.00280659,.0016441,55.0831,176.4865,183.8532,5.1397,0,U,44337,999,573,0,-.63E-6,0
BEIDOU-3 M23 (C45),2019-061A,2021-01-03T11:13:09.217056,1.86231619,.0009134,54.7759,250.1475,334.5415,186.5812,0,U,44542,999,871,.1E-3,.42E-6,0
BEIDOU-3 M24 (C46),2019-061B,2021-01-03T02:19:51.436704,1.86231936,.0006394,54.7746,250.1317,328.1418,215.3155,0,U,44543,999,871,.1E-3,.44E-6,0
BEIDOU-3 IGSO-3,2019-073A,2021-01-02T18:53:58.110432,1.00273680,.0020057,58.1004,301.8594,197.2499,355.1373,0,U,44709,999,448,0,-.168E-5,0
BEIDOU-3 M21,2019-078A,2021-01-03T04:48:14.141088,1.86232424,.0006598,55.0631,8.8602,342.6416,104.6525,0,U,44793,999,757,.1E-3,-.6E-6,0
BEIDOU-3 M22,2019-078B,2021-01-02T09:34:49.857024,1.86233037,.0004729,55.0364,8.8907,331.7810,209.1593,0,U,44794,999,755,.1E-3,-.6E-6,0
BEIDOU-3 M19,2019-090A,2021-01-03T02:53:43.581120,1.86231777,.0014292,55.1508,129.4349,259.8911,239.3876,0,U,44864,999,715,0,.42E-6,0
BEIDOU-3 M20,2019-090B,2021-01-02T20:45:08.703648,1.86231743,.0012687,55.1519,129.4743,277.6283,139.9711,0,U,44865,999,713,0,.41E-6,0
BEIDOU-3 G2,2020-017A,2021-01-03T03:14:42.726336,1.00270429,.0001327,2.6566,332.3702,336.1249,283.1963,0,U,45344,999,330,0,-.128E-5,0
BEIDOU-3 G3,2020-040A,2021-01-02T01:18:41.558688,1.00265510,.0009781,2.6676,298.3913,14.1812,279.4526,0,U,45807,999,210,0,-.337E-5,0
