BEIDOU-3 M13            
1 43622U 18072A   21003.49207777  .00000043  00000-0  00000+0 0  9990
2 43622  55.2153 129.1827 0004436 278.3078  64.6570  1.86231592 15575
BEIDOU-3 M14            
1 43623U 18072B   21003.46681890  .00000043  00000-0  00000+0 0  9990
2 43623  55.2173 129.1751 0002982 318.7147  97.5493  1.86231595 15587
BEIDOU-3 M15            
1 43647U 18078A   21003.15221446 -.00000059  00000-0  10000-3 0  9998
2 43647  55.2138   8.7762 0006848 336.0764 124.4207  1.86232977 15084
BEIDOU-3 M16            
1 43648U 18078B   21003.45271814 -.00000059  00000-0  10000-3 0  9996
2 43648  55.2110   8.7734 0004442 338.8848 231.8209  1.86232304 15107
BEIDOU-3 G1             
1 43683U 18085A   21003.50084589 -.00000266  00000-0  00000+0 0  9995
2 43683   1.3499 243.7645 0004385  10.6264 169.3333  1.00271498  8101
BEIDOU-3 M17            
1 43706U 18093A   21003.03021304  .00000044  00000-0  00000+0 0  9997
2 43706  54.5522 250.1257 0009107 278.6897 264.9919  1.86231903 14447
BEIDOU-3 M18            
1 43707U 18093B   21002.49091874  .00000047  00000-0  00000+0 0  9999
2 43707  54.5523 250.1331 0008565 304.3015 328.5059  1.86232136 14438
BEIDOU-3 IGSO-1         
1 44204U 19023A   21002.55952081 -.00000206  00000-0  00000+0 0  9997
2 44204  55.7801  58.7301 0017991 200.2859 158.1207  1.00289431  6388
BEIDOU-2 G8             
1 44231U 19027A   21003.21276785 -.00000236  00000-0  00000+0 0  9998
2 44231   0.5432 308.3484 0007594 277.3363  98.4473  1.00266850  6117
BEIDOU-3 IGSO-2         
1 44337U 19035A   21003.43011616 -.00000063  00000-0  00000+0 0  9996
2 44337  55.0831 176.4865 0016441 183.8532   5.1397  1.00280659  5739
BEIDOU-3 M23            
1 44542U 19061A   21003.46746779  .00000042  00000-0  10000-3 0  9992
2 44542  54.7759 250.1475 0009134 334.5415 186.5812  1.86231619  8718
BEIDOU-3 M24            
1 44543U 19061B   21003.09712311  .00000044  00000-0  10000-3 0  9999
2 44543  54.7746 250.1317 0006394 328.1418 215.3155  1.86231936  8710
BEIDOU-3 IGSO-3         
1 44709U 19073A   21002.78747813 -.00000168  00000-0  00000-0 0  9990
2 44709  58.1004 301.8594 0020057 197.2499 355.1373  1.00273680  4489
BEIDOU-3 M21            
1 44793U 19078A   21003.20016367 -.00000060  00000-0  10000-3 0  9994
2 44793  55.0631   8.8602 0006598 342.6416 104.6525  1.86232424  7571
BEIDOU-3 M22            
1 44794U 19078B   21002.39918816 -.00000060  00000-0  10000-3 0  9994
2 44794  55.0364   8.8907 0004729 331.7810 209.1593  1.86233037  7559
BEIDOU-3 M19            
1 44864U 19090A   21003.12064330  .00000042  00000-0  00000+0 0  9995
2 44864  55.1508 129.4349 0014292 259.8911 239.3876  1.86231777  7150
BEIDOU-3 M20            
1 44865U 19090B   21002.86468407  .00000041  00000-0  00000-0 0  9999
2 44865  55.1519 129.4743 0012687 277.6283 139.9711  1.86231743  7131
BEIDOU-3 G2             
1 45344U 20017A   21003.13521674 -.00000128  00000-0  00000+0 0  9996
2 45344   2.6566 332.3702 0001327 336.1249 283.1963  1.00270429  3301
BEIDOU-3 G3             
1 45807U 20040A   21002.05464767 -.00000337  00000-0  00000-0 0  9998
2 45807   2.6676 298.3913 0009781  14.1812 279.4526  1.00265510  2108
